CZ-2C R/B               
1 28222U 04012C   17174.87302109  .00000138  00000-0  12524-4 0  9993
2 28222  97.5255 131.2379 0048810 161.0297 254.9026 15.09244407721626
SL-16 R/B               
1 28353U 04021B   17174.93878828  .00000282  00000-0  17301-3 0  9998
2 28353  71.0020  64.3075 0005797 208.5556 151.5249 14.14198924673104
CZ-2C R/B               
1 28480U 04046B   17174.92073679  .00000009  00000-0  19094-4 0  9995
2 28480  98.1962 270.6778 0141554 204.2190 272.6381 14.25640858655170
ARIANE 5 R/B            
1 28499U 04049H   17174.89485951  .00000050  00000-0  13698-4 0  9994
2 28499  98.0786 257.9524 0092159 193.1402 304.5912 14.79819744674940
CZ-2D R/B               
1 28738U 05024B   17174.95434731  .00000287  00000-0  20867-4 0  9999
2 28738  97.4963 211.7024 0011808 349.3823  10.7156 15.11153374656812
SUZAKU (ASTRO-EII)      
1 28773U 05025A   17174.64609116  .00000906  00000-0  41805-4 0  9999
2 28773  31.3825 254.5486 0004702  50.4883 309.6179 15.15831896658333
ALOS (DAICHI)           
1 28931U 06002A   17174.98049539  .00000147  00000-0  37665-4 0  9991
2 28931  97.8433 201.9971 0000772  49.1335 310.9955 14.62362662608452
H-2A R/B                
1 28932U 06002B   17174.85928965  .00000333  00000-0  37538-4 0  9993
2 28932  98.2071  98.0164 0088672 290.0694 109.6679 14.91378889618801
AKARI (ASTRO-F)         
1 28939U 06005A   17174.85054638  .00002986  00000-0  93309-4 0  9994
2 28939  98.2521  16.7450 0107200 162.6530 197.8417 15.28677783614110
RESURS-DK 1             
1 29228U 06021A   17174.89989012  .00000101  00000-0  15066-4 0  9992
2 29228  69.9362  81.0013 0006708 307.7166  52.3386 15.02163988609100
GENESIS 1               
1 29252U 06029A   17174.70819627  .00000297  00000-0  25298-4 0  9995
2 29252  64.5045 264.2146 0015719 319.4742 196.3240 15.16786172602731
CZ-4B R/B               
1 29507U 06046C   17174.94107583 -.00000171  00000-0 -84091-5 0  9994
2 29507  97.7844 182.5063 0044432 215.9591 143.8640 15.00066667582006
CZ-2C R/B               
1 31114U 07010B   17174.82526608  .00000016  00000-0  26884-4 0  9994
2 31114  98.3982  76.9624 0059363 195.3067 164.6316 14.19244363528449
COSMO-SKYMED 1          
1 31598U 07023A   17174.92453996 -.00000397  00000-0 -43290-4 0  9998
2 31598  97.8847 358.5312 0001315  82.3737 277.7630 14.82158551543440
GENESIS 2               
1 31789U 07028A   17174.85970411  .00000541  00000-0  38306-4 0  9994
2 31789  64.5048 301.6833 0028541 222.7087 137.1817 15.16064867549920
COSMOS 2428             
1 31792U 07029A   17174.93222942  .00000208  00000-0  13929-3 0  9990
2 31792  70.9172  37.9443 0011352 260.6988  99.2849 14.12276595514936
SL-16 R/B               
1 31793U 07029B   17174.95221465  .00000003  00000-0  26648-4 0  9998
2 31793  70.9764  14.9532 0001922 265.8917 194.8653 14.14387309515630
KORONAS-FOTON           
1 33504U 09003A   17174.77368854  .00000243  00000-0  11269-4 0  9997
2 33504  82.4422 226.4353 0021166  87.7391 272.6264 15.14833026462379
TIANGONG 1              
1 37820U 11053A   17174.76689815  .00020899  00000-0  11481-3 0  9996
2 37820  42.7583 159.6872 0017543 126.2248 246.2121 15.79104387329012
CZ-3B R/B               
1 38253U 12018D   17174.95825414  .00586987  55751-5  16947-3 0  9992
2 38253  54.8470 164.9744 1340755 284.1676  61.4240 13.28081305128789
H-2A R/B                
1 38341U 12025E   17174.84849047  .00000166  00000-0  27065-4 0  9990
2 38341  98.4340 252.2434 0056913 136.0693 224.5065 14.83579203275788
CUSAT 2 & FALCON 9 R/B  
1 39271U 13055G   17174.93743780  .00007457  00000-0  19204-3 0  9999
2 39271  80.9672 349.9907 0633105 182.2454 177.5872 14.37225996193593
ALOS-2                  
1 39766U 14029A   17174.87825384 -.00000106  00000-0 -73739-5 0  9995
2 39766  97.9218 272.1059 0001636  82.4756 277.6648 14.79469860166594
ASTRO-H (HITOMI)        
1 41337U 16012A   17174.91867707  .00000291  00000-0  16892-4 0  9995
2 41337  31.0063  76.1435 0012358 107.5093 252.6893 14.98312402 73934
TIANGONG-2              
1 41765U 16057A   17174.84331642  .00005995  00000-0  82841-4 0  9998
2 41765  42.7841 315.1376 0004039 281.8734 218.1318 15.57916067 44027
